*******************************************************************************
JPL/HORIZONS               3213 Smolensk (1977 NQ)         2023-Sep-04 11:22:20
Rec #:    3213 (+COV) Soln.date: 2023-Aug-23_08:00:05   # obs: 3647 (1950-2023)
 
IAU76/J2000 helio. ecliptic osc. elements (au, days, deg., period=Julian yrs):
 
  EPOCH=  2457443.5 ! 2016-Feb-25.00 (TDB)         Residual RMS= .2663
   EC= .1586623326558254   QR= 2.692434864851326   TP= 2458283.8369708303
   OM= 33.74101964066702   W=  325.8426361038366   IN= .9558214296868228
   A= 3.200183433306219    MA= 215.3244187685447   ADIST= 3.707932001761112
   PER= 5.72493            N= .17216377            ANGMOM= .030383128
   DAN= 2.75757            DDN= 3.59111            L= 359.58736
   B= -.5366459            MOID= 1.69000006        TP= 2018-Jun-14.3369708303
 
Asteroid physical parameters (km, seconds, rotational period in hours):
   GM= n.a.                RAD= 8.86               ROTPER= 3.564
   H= 12.61                G= .150                 B-V= n.a.
                           ALBEDO= .074            STYP= n.a.

ASTEROID comments: 
1: soln ref.= JPL#47, OCC=0
2: source=ORB
*******************************************************************************


*******************************************************************************
Ephemeris / API_USER Mon Sep  4 11:22:21 2023 Pasadena, USA      / Horizons
*******************************************************************************
Target body name: 3213 Smolensk (1977 NQ)         {source: JPL#47}
Center body name: Solar System Barycenter (0)     {source: DE441}
Center-site name: BODY CENTER
*******************************************************************************
Start time      : A.D. 2023-Aug-12 00:00:00.0000 TDB
Stop  time      : A.D. 2023-Aug-13 00:00:00.0000 TDB
Step-size       : 2880 minutes
*******************************************************************************
Center geodetic : 0.0, 0.0, 0.0                   {E-lon(deg),Lat(deg),Alt(km)}
Center cylindric: 0.0, 0.0, 0.0                   {E-lon(deg),Dxy(km),Dz(km)}
Center radii    : (undefined)
Small perturbers: Yes                             {source: SB441-N16}
Output units    : KM-S
Calendar mode   : Mixed Julian/Gregorian
Output type     : GEOMETRIC cartesian states
Output format   : 2 (position and velocity)
Reference frame : Ecliptic of J2000.0
*******************************************************************************
Initial IAU76/J2000 heliocentric ecliptic osculating elements (au, days, deg.):
  EPOCH=  2457443.5 ! 2016-Feb-25.00 (TDB)         Residual RMS= .2663         
   EC= .1586623326558254   QR= 2.692434864851326   TP= 2458283.8369708303      
   OM= 33.74101964066702   W=  325.8426361038366   IN= .9558214296868228       
  Equivalent ICRF heliocentric cartesian coordinates (au, au/d):
   X=-3.271446517467150E+00  Y=-1.460952483522435E+00  Z=-6.243819880597304E-01
  VX= 4.265092793291225E-03 VY=-6.563870300624763E-03 VZ=-2.997961084705394E-03
Asteroid physical parameters (km, seconds, rotational period in hours):        
   GM= n.a.                RAD= 8.86               ROTPER= 3.564               
   H= 12.61                G= .150                 B-V= n.a.                   
                           ALBEDO= .074            STYP= n.a.                  
*******************************************************************************
JDTDB
   X     Y     Z
   VX    VY    VZ
*******************************************************************************
$$SOE
2460168.500000000 = A.D. 2023-Aug-12 00:00:00.0000 TDB 
 X = 2.780737407994897E+08 Y =-3.147727770506254E+08 Z =-6.911389589098588E+06
 VX= 1.262845080164457E+01 VY= 1.391391733184635E+01 VZ= 7.638036450691210E-02
$$EOE
*******************************************************************************
 
TIME

  Barycentric Dynamical Time ("TDB" or T_eph) output was requested. This
continuous coordinate time is equivalent to the relativistic proper time
of a clock at rest in a reference frame co-moving with the solar system
barycenter but outside the system's gravity well. It is the independent
variable in the solar system relativistic equations of motion.

  TDB runs at a uniform rate of one SI second per second and is independent
of irregularities in Earth's rotation.
 
CALENDAR SYSTEM

  Mixed calendar mode was active such that calendar dates after AD 1582-Oct-15
(if any) are in the modern Gregorian system. Dates prior to 1582-Oct-5 (if any)
are in the Julian calendar system, which is automatically extended for dates
prior to its adoption on 45-Jan-1 BC.  The Julian calendar is useful for
matching historical dates. The Gregorian calendar more accurately corresponds
to the Earth's orbital motion and seasons. A "Gregorian-only" calendar mode is
available if such physical events are the primary interest.

REFERENCE FRAME AND COORDINATES

  Ecliptic at the standard reference epoch

    Reference epoch: J2000.0
    X-Y plane: adopted Earth orbital plane at the reference epoch
               Note: IAU76 obliquity of 84381.448 arcseconds wrt ICRF X-Y plane
    X-axis   : ICRF
    Z-axis   : perpendicular to the X-Y plane in the directional (+ or -) sense
               of Earth's north pole at the reference epoch.

  Symbol meaning:

    JDTDB    Julian Day Number, Barycentric Dynamical Time
      X      X-component of position vector (km)
      Y      Y-component of position vector (km)
      Z      Z-component of position vector (km)
      VX     X-component of velocity vector (km/sec)                           
      VY     Y-component of velocity vector (km/sec)                           
      VZ     Z-component of velocity vector (km/sec)                           

ABERRATIONS AND CORRECTIONS

 Geometric state vectors have NO corrections or aberrations applied.

Computations by ...

    Solar System Dynamics Group, Horizons On-Line Ephemeris System
    4800 Oak Grove Drive, Jet Propulsion Laboratory
    Pasadena, CA  91109   USA

    General site: https://ssd.jpl.nasa.gov/
    Mailing list: https://ssd.jpl.nasa.gov/email_list.html
    System news : https://ssd.jpl.nasa.gov/horizons/news.html
    User Guide  : https://ssd.jpl.nasa.gov/horizons/manual.html
    Connect     : browser        https://ssd.jpl.nasa.gov/horizons/app.html#/x
                  API            https://ssd-api.jpl.nasa.gov/doc/horizons.html
                  command-line   telnet ssd.jpl.nasa.gov 6775
                  e-mail/batch   https://ssd.jpl.nasa.gov/ftp/ssd/hrzn_batch.txt
                  scripts        https://ssd.jpl.nasa.gov/ftp/ssd/SCRIPTS
    Author      : Jon.D.Giorgini@jpl.nasa.gov
*******************************************************************************
